{
    "links": {
        "self": "http://www.neowsapp.com/rest/v1/neo/3152322?api_key=iIulBulltgU6a56xZRHN4H3l9WmuAYTsLGpBGhQ2"
    },
    "id": "3152322",
    "neo_reference_id": "3152322",
    "name": "(2003 GD42)",
    "designation": "2003 GD42",
    "nasa_jpl_url": "http://ssd.jpl.nasa.gov/sbdb.cgi?sstr=3152322",
    "absolute_magnitude_h": 24.7,
    "estimated_diameter": {
        "kilometers": {
            "estimated_diameter_min": 0.0305179233,
            "estimated_diameter_max": 0.0682401509
        },
        "meters": {
            "estimated_diameter_min": 30.5179232594,
            "estimated_diameter_max": 68.2401509401
        },
        "miles": {
            "estimated_diameter_min": 0.0189629525,
            "estimated_diameter_max": 0.0424024508
        },
        "feet": {
            "estimated_diameter_min": 100.1244233463,
            "estimated_diameter_max": 223.8850168104
        }
    },
    "is_potentially_hazardous_asteroid": false,
    "close_approach_data": [
        {
            "close_approach_date": "1953-05-12",
            "close_approach_date_full": "1953-May-12 12:20",
            "epoch_date_close_approach": -525094800000,
            "relative_velocity": {
                "kilometers_per_second": "17.7439940383",
                "kilometers_per_hour": "63878.3785377936",
                "miles_per_hour": "39691.5402642196"
            },
            "miss_distance": {
                "astronomical": "0.4599552825",
                "lunar": "178.9226048925",
                "kilometers": "68808330.557248275",
                "miles": "42755514.008745195"
            },
            "orbiting_body": "Earth"
        },
        {
            "close_approach_date": "2000-05-09",
            "close_approach_date_full": "2000-May-09 00:32",
            "epoch_date_close_approach": 957832320000,
            "relative_velocity": {
                "kilometers_per_second": "16.1348391899",
                "kilometers_per_hour": "58085.4210838088",
                "miles_per_hour": "36092.0217839922"
            },
            "miss_distance": {
                "astronomical": "0.400772888",
                "lunar": "155.900653432",
                "kilometers": "59954770.39854856",
                "miles": "37254166.826987728"
            },
            "orbiting_body": "Earth"
        },
        {
            "close_approach_date": "2003-04-08",
            "close_approach_date_full": "2003-Apr-08 15:58",
            "epoch_date_close_approach": 1049817480000,
            "relative_velocity": {
                "kilometers_per_second": "7.5613509831",
                "kilometers_per_hour": "27220.8635389845",
                "miles_per_hour": "16913.9860139874"
            },
            "miss_distance": {
                "astronomical": "0.0158666231",
                "lunar": "6.1721163859",
                "kilometers": "2373613.019852797",
                "miles": "1474894.7387587186"
            },
            "orbiting_body": "Earth"
        },
        {
            "close_approach_date": "2006-02-21",
            "close_approach_date_full": "2006-Feb-21 23:15",
            "epoch_date_close_approach": 1140563700000,
            "relative_velocity": {
                "kilometers_per_second": "11.4536477864",
                "kilometers_per_hour": "41233.132030909",
                "miles_per_hour": "25620.6647333167"
            },
            "miss_distance": {
                "astronomical": "0.3043075884",
                "lunar": "118.3756518876",
                "kilometers": "45523767.049476708",
                "miles": "28287157.1516382504"
            },
            "orbiting_body": "Earth"
        },
        {
            "close_approach_date": "2034-02-11",
            "close_approach_date_full": "2034-Feb-11 21:04",
            "epoch_date_close_approach": 2023304640000,
            "relative_velocity": {
                "kilometers_per_second": "13.9437020833",
                "kilometers_per_hour": "50197.3274999711",
                "miles_per_hour": "31190.6671901904"
            },
            "miss_distance": {
                "astronomical": "0.3892478122",
                "lunar": "151.4173989458",
                "kilometers": "58230643.607280014",
                "miles": "36182844.1167876332"
            },
            "orbiting_body": "Earth"
        }
    ],
    "orbital_data": {
        "orbit_id": "8",
        "orbit_determination_date": "2017-04-06 09:14:09",
        "first_observation_date": "2003-04-09",
        "last_observation_date": "2003-04-15",
        "data_arc_in_days": 6,
        "observations_used": 30,
        "orbit_uncertainty": "7",
        "minimum_orbit_intersection": ".0124335",
        "jupiter_tisserand_invariant": "4.968",
        "epoch_osculation": "2459000.5",
        "eccentricity": ".2288933089167502",
        "semi_major_axis": "1.294683725255218",
        "inclination": "12.24701046960553",
        "ascending_node_longitude": "18.12528401824198",
        "orbital_period": "538.0764194285414",
        "perihelion_distance": ".9983392833808864",
        "perihelion_argument": "156.2247813862433",
        "aphelion_distance": "1.591028167129549",
        "perihelion_time": "2459174.602851020003",
        "mean_anomaly": "243.5164967203604",
        "mean_motion": ".6690499471847035",
        "equinox": "J2000",
        "orbit_class": {
            "orbit_class_type": "APO",
            "orbit_class_description": "Near-Earth asteroid orbits which cross the Earth’s orbit similar to that of 1862 Apollo",
            "orbit_class_range": "a (semi-major axis) > 1.0 AU; q (perihelion) < 1.017 AU"
        }
    },
    "is_sentry_object": false
}